HST                     
1 20580U 90037B   25104.17171204  .00009507  00000+0  36811-3 0  9991
2 20580  28.4666 118.5846 0002299 110.7701 249.3139 15.24425514723164
POLAR                   
1 23802U 96013A   25102.49366464  .00000145  00000+0  00000+0 0  9994
2 23802  79.3918 231.7198 6071516 223.6138  68.0923  1.29846419139247
SWAS                    
1 25560U 98071A   25103.66870594  .00008556  00000+0  59974-3 0  9999
2 25560  69.8968 251.6946 0008192 217.7195 142.3393 15.05491193432531
CXO                     
1 25867U 99040B   25105.96914894  .00000895  00000+0  00000+0 0  9993
2 25867  48.1030 132.8028 8515445 308.4124   0.0837  0.37808205 26867
XMM-NEWTON              
1 25989U 99066A   25103.55841701  .00000037  00000+0  00000+0 0  9993
2 25989  66.5385 288.6705 4891574  72.3825 359.9683  0.50135277 20846
TERRA                   
1 25994U 99068A   25104.53485116  .00001135  00000+0  24256-3 0  9997
2 25994  98.0036 164.6462 0003438 124.2391 341.7135 14.60623500347146
CLUSTER II-FM7 (SAMBA)  
1 26410U 00041A   25106.81343955  .00000580  00000+0  00000+0 0  9991
2 26410 143.3438   8.4770 8238781 223.7895   0.7629  0.44817068 30151
CLUSTER II-FM5 (RUMBA)  
1 26463U 00045A   25107.22705715  .00008682  00000+0  00000+0 0  9996
2 26463 153.2607  64.6522 9038611 282.5519   0.7454  0.42911798 30691
CLUSTER II-FM8 (TANGO)  
1 26464U 00045B   25098.89145703 -.00000141  00000+0  00000+0 0  9997
2 26464 143.4889   8.4952 8231848 223.6470   0.7154  0.44420423 18365
ODIN                    
1 26702U 01007A   25104.06778194  .00026554  00000+0  72309-3 0  9994
2 26702  97.4521 126.6288 0003749 294.5518  65.5335 15.37472457323502
TIMED                   
1 26998U 01055B   25104.13194382  .00003495  00000+0  33346-3 0  9990
2 26998  74.0724  17.8860 0002102 278.2331  81.8615 14.93738110266865
CORIOLIS                
1 27640U 03001A   25103.75724112  .00000308  00000+0  16607-3 0  9996
2 27640  98.7149 112.2410 0014293  14.6673 345.4915 14.19764433153288
SORCE                   
1 27651U 03004A   25103.59846875  .00007051  00000+0  56611-3 0  9995
2 27651  39.9907 185.8990 0018793 206.2672 153.7169 15.00012988207299
MOST                    
1 27843U 03031D   25104.47597679  .00000224  00000+0  12314-3 0  9998
2 27843  98.7080 113.1787 0010808  54.4401 305.7782 14.21188985129811
SCISAT 1                
1 27858U 03036A   25103.95695322  .00001632  00000+0  21725-3 0  9995
2 27858  73.9294 303.6222 0006471 110.9336 249.2533 14.80591266167919
SWIFT                   
1 28485U 04047A   25104.20794656  .00033600  00000+0  91897-3 0  9991
2 28485  20.5534 161.7392 0005834 243.4796 116.5046 15.35525427120388
CALIPSO                 
1 29108U 06016B   25104.50648824  .00003285  00000+0  58174-3 0  9997
2 29108  98.4466 100.8822 0001553 106.7414 253.3960 14.68031080 10142
HINODE (SOLAR-B)        
1 29479U 06041A   25103.90615813  .00001629  00000+0  29369-3 0  9995
2 29479  98.0758 121.1140 0017071 204.8953 155.1430 14.67775066991879
SHIJIAN-6 02A (SJ-6 02A)
1 29505U 06046A   25104.48539921  .00011023  00000+0  67096-3 0  9997
2 29505  97.6880 137.9170 0004458 151.1516 208.9960 15.10580691  7535
SHIJIAN-6 02B (SJ-6 02B)
1 29506U 06046B   25104.54686766  .00004276  00000+0  35207-3 0  9996
2 29506  97.7090 132.6156 0002872  89.1311 271.0242 14.99614142  6467
FGRST (GLAST)           
1 33053U 08029A   25104.54639680  .00006489  00000+0  27162-3 0  9993
2 33053  25.5821 293.4068 0008862 325.9743  34.0226 15.20770393930666
SDO                     
1 36395U 10005A   25103.49419671 -.00000042  00000+0  00000+0 0  9999
2 36395  33.7515  92.9143 0000471 230.0958 315.1591  1.00274091 55750
CRYOSAT 2               
1 36508U 10013A   25104.53650610  .00000368  00000+0  90509-4 0  9998
2 36508  92.0155 173.8158 0002239  64.3993 295.7446 14.51912249795926
X-SAT                   
1 37389U 11015C   25104.45253851  .00000343  00000+0  16392-3 0  9996
2 37389  98.3107  98.1231 0014492 157.3789 202.8033 14.25013979727133
GCOM-W1 (SHIZUKU)       
1 38337U 12025A   25103.91366612  .00001478  00000+0  33833-3 0  9991
2 38337  98.1980  45.6893 0001452  77.8453 326.1711 14.57080589686516
NUSTAR                  
1 38358U 12031A   25103.91668981  .00004766  00000+0  28486-3 0  9996
2 38358   6.0269 359.8097 0009382 231.9069 146.7824 15.03058155  1573
NEOSSAT                 
1 39089U 13009D   25104.46256506  .00000440  00000+0  16728-3 0  9992
2 39089  98.4073 290.0434 0012253  85.3853 274.8732 14.35575722635232
BRITE-AUSTRIA           
1 39091U 13009F   25103.90489845  .00000483  00000+0  17990-3 0  9996
2 39091  98.3883 289.3501 0011458  83.3343 276.9147 14.36269686635421
IRIS                    
1 39197U 13033A   25104.45974348  .00002529  00000+0  30618-3 0  9993
2 39197  97.9548 299.9175 0023679 280.3920  79.4626 14.84369009636762
HISAKI (SPRINT-A)       
1 39253U 13049A   25103.82105881  .00000197  00000+0  17869-3 0  9993
2 39253  29.7190 242.8295 0136510 136.0442 225.1078 13.55482122573126
CASSIOPE                
1 39265U 13055A   25104.19347870  .00041970 -53583-6  67813-3 0  9990
2 39265  80.9458 214.6194 0403239  35.4999 327.2340 14.94914385602948
STSAT-3                 
1 39422U 13066G   25104.47560169  .00007679  00000+0  63083-3 0  9997
2 39422  97.5600  79.2359 0022372  70.9719 289.3926 14.99250298619894
SWARM B                 
1 39451U 13067A   25104.52180534  .00006102  00000+0  24514-3 0  9996
2 39451  87.7398 112.1710 0002905  93.6272 266.5308 15.24755741632455
SWARM A                 
1 39452U 13067B   25103.89850958  .00015715  00000+0  37829-3 0  9993
2 39452  87.3448 214.1165 0002340 102.1861 257.9657 15.41155763639936
SWARM C                 
1 39453U 13067C   25103.89840565  .00015580  00000+0  37506-3 0  9999
2 39453  87.3449 212.7078 0002339 101.2281 258.9238 15.41154790639899
BRITE-CA1 (TORONTO)     
1 40020U 14033L   25104.40688522  .00003126  00000+0  48828-3 0  9998
2 40020  97.9159 238.1140 0079923 208.5132 151.1692 14.71413660579243
OCO 2                   
1 40059U 14035A   25103.90196690  .00001286  00000+0  29572-3 0  9996
2 40059  98.1973  46.4325 0001407  80.1907 279.9450 14.57078748573538
BRITE-PL2 (HEWELIUSZ)   
1 40119U 14049B   25104.23467343  .00005242  00000+0  51842-3 0  9992
2 40119  97.8847 209.3798 0016124  92.3690 267.9375 14.92234000577510
MMS 1                   
1 40482U 15011A   25087.50002315 -.00001275  00000+0  00000+0 0  9998
2 40482  62.3308 357.3117 8808304 157.8072  97.3983  0.28480349  1389
MMS 2                   
1 40483U 15011B   25087.50002315 -.00001275  00000+0  00000+0 0  9999
2 40483  62.2978 357.3282 8807312 157.7919  97.3692  0.28480709  1389
MMS 3                   
1 40484U 15011C   25087.33335648 -.00001290  00000+0  00000+0 0  9996
2 40484  62.3347 357.3125 8808551 157.7962  80.2556  0.28480348 16162
MMS 4                   
1 40485U 15011D   25087.50002315 -.00001275  00000+0  00000+0 0  9991
2 40485  62.3095 357.3185 8807705 157.7909  87.6207  0.28484629  1388
ASTROSAT                
1 40930U 15052A   25103.97919596  .00003345  00000+0  33576-3 0  9996
2 40930   5.9980   1.8637 0007835  24.5660 335.4841 14.81237806516101
DAMPE                   
1 41173U 15078A   25104.46727077  .00002874  00000+0  10390-3 0  9995
2 41173  97.4480 103.5424 0013269 149.2709 210.9310 15.29209435518990
PISAT                   
1 41784U 16059B   25104.45743339  .00002364  00000+0  41996-3 0  9991
2 41784  97.8188 118.8184 0030922 132.4813 227.9013 14.67757069456827
HXMT (HUIYAN)           
1 42758U 17034A   25104.29013890  .00011599  00000+0  64608-3 0  9996
2 42758  43.0158  41.4738 0036930 315.7868  44.0030 15.13036085432591
FLYING LAPTOP           
1 42831U 17042G   25103.89775631  .00004827  00000+0  40825-3 0  9991
2 42831  97.4030 274.3534 0013298 136.1054 224.1229 14.98419697422114
ZHANGHENG 1 (CSES)      
1 43194U 18015C   25104.48358304  .00018718  00000+0  84547-3 0  9998
2 43194  97.6423 257.8053 0008930 322.8450  37.2166 15.20983624399486
SALSAT                  
1 46495U 20068K   25104.41533861  .00013886  00000+0  61532-3 0  9992
2 46495  97.8572  79.9032 0011788   8.5144 351.6288 15.21687117249989
IXPE                    
1 49954U 21121A   25104.58335648  .00010347  00000+0  65178-3 0  9996
2 49954   0.2307 305.6537 0008295  94.9143 144.1262 15.04764383183270
